STARLINK-37314          
1 68740U 26082N   26115.83334491 -.01965152  00000+0 -12370-1 0  9997
2 68740  97.2853 338.0992 0001728  90.8347 310.6665 15.79783207  2765
STARLINK-36314          
1 68741U 26082P   26115.83334491 -.00003344  00000+0 -16751-4 0  9993
2 68741  97.2848 338.1012 0001236  97.2323 309.0486 15.80779083  2710
STARLINK-37351          
1 68742U 26082Q   26115.83334491 -.00524534  00000+0 -36849-2 0  9991
2 68742  97.2849 338.0992 0001342  79.4809 320.7848 15.75507031  2760
STARLINK-37354          
1 68743U 26082R   26115.83334491  .00017395  00000+0  91614-4 0  9995
2 68743  97.2854 338.1048 0000852  89.8521 325.0015 15.80758211  2769
STARLINK-37344          
1 68744U 26082S   26115.83334491 -.01910063  00000+0 -11445-1 0  9994
2 68744  97.2851 338.1063 0001631  82.2675 336.8244 15.80761808  2767
STARLINK-37267          
1 68745U 26082T   26115.83334491  .00023344  00000+0  12251-3 0  9997
2 68745  97.2854 338.1084 0001327  84.2176 339.1593 15.80776013  2761
STARLINK-37347          
1 68746U 26082U   26115.83334491  .00060854  00000+0  31705-3 0  9990
2 68746  97.2845 338.1099 0001311  79.8706 347.7836 15.80759365  2766
STARLINK-37268          
1 68747U 26082V   26115.83334491  .00076510  00000+0  39793-3 0  9992
2 68747  97.2848 338.1119 0000915  88.0615 343.8704 15.80747681  2762
STARLINK-37325          
1 68748U 26082W   26115.83334491  .00060488  00000+0  31511-3 0  9990
2 68748  97.2849 338.1147 0001216  81.5857 354.6141 15.80762774  2761
STARLINK-37324          
1 68749U 26082X   26115.83334491  .00019893  00000+0  10450-3 0  9994
2 68749  97.2846 338.1179 0001255  92.3855 352.3546 15.80786937  2766
STARLINK-37350          
1 68750U 26082Y   26115.83334491 -.01956209  00000+0 -12700-1 0  9998
2 68750  97.2843 338.1207 0001606  84.8468   7.1188 15.79094559  2760
STARLINK-37277          
1 68751U 26082Z   26115.83334491  .00046532  00000+0  24289-3 0  9992
2 68751  97.2844 338.1164 0001487  89.5359 350.9382 15.80769184  2762
STARLINK-37342          
1 68752U 26082AA  26115.83334491 -.01950974  00000+0 -12870-1 0  9991
2 68752  97.2846 338.1185 0001834  74.8141  12.2905 15.78730931  2764
2026-083A               
1 68753U 26083A   26115.64074059  .00004726  00000+0  19878-3 0  9992
2 68753  98.2658 261.7740 0064772  50.2070 310.4842 15.22060846  1339
2026-083B               
1 68754U 26083B   26115.59650870  .00002316  00000+0  16134-3 0  9993
2 68754  98.2527 261.4484 0008810 229.5159 130.5299 15.06538609  1300
2026-083D               
1 68756U 26083D   26115.65796539  .00008365  00000+0  27674-3 0  9996
2 68756  96.9052 256.2537 0013688 238.9196 121.0703 15.31472561  1324
2026-083E               
1 68757U 26083E   26115.36683370  .00173055  00000+0  64410-2 0  9990
2 68757  98.2487 261.4401 0059020  49.4364 311.1988 15.25131961  1283
