[{"OBJECT_NAME":"STARLINK-37314","OBJECT_ID":"2026-082N","EPOCH":"2026-04-25T20:00:01.000224","MEAN_MOTION":15.79783207,"ECCENTRICITY":0.0001728,"INCLINATION":97.2853,"RA_OF_ASC_NODE":338.0992,"ARG_OF_PERICENTER":90.8347,"MEAN_ANOMALY":310.6665,"EPHEMERIS_TYPE":0,"CLASSIFICATION_TYPE":"U","NORAD_CAT_ID":68740,"ELEMENT_SET_NO":999,"REV_AT_EPOCH":276,"BSTAR":-0.01237,"MEAN_MOTION_DOT":-0.01965152,"MEAN_MOTION_DDOT":0},{"OBJECT_NAME":"STARLINK-36314","OBJECT_ID":"2026-082P","EPOCH":"2026-04-25T20:00:01.000224","MEAN_MOTION":15.80779083,"ECCENTRICITY":0.0001236,"INCLINATION":97.2848,"RA_OF_ASC_NODE":338.1012,"ARG_OF_PERICENTER":97.2323,"MEAN_ANOMALY":309.0486,"EPHEMERIS_TYPE":0,"CLASSIFICATION_TYPE":"U","NORAD_CAT_ID":68741,"ELEMENT_SET_NO":999,"REV_AT_EPOCH":271,"BSTAR":-1.6751e-5,"MEAN_MOTION_DOT":-3.344e-5,"MEAN_MOTION_DDOT":0},{"OBJECT_NAME":"STARLINK-37351","OBJECT_ID":"2026-082Q","EPOCH":"2026-04-25T20:00:01.000224","MEAN_MOTION":15.75507031,"ECCENTRICITY":0.0001342,"INCLINATION":97.2849,"RA_OF_ASC_NODE":338.0992,"ARG_OF_PERICENTER":79.4809,"MEAN_ANOMALY":320.7848,"EPHEMERIS_TYPE":0,"CLASSIFICATION_TYPE":"U","NORAD_CAT_ID":68742,"ELEMENT_SET_NO":999,"REV_AT_EPOCH":276,"BSTAR":-0.0036849,"MEAN_MOTION_DOT":-0.00524534,"MEAN_MOTION_DDOT":0},{"OBJECT_NAME":"STARLINK-37354","OBJECT_ID":"2026-082R","EPOCH":"2026-04-25T20:00:01.000224","MEAN_MOTION":15.80758211,"ECCENTRICITY":8.52e-5,"INCLINATION":97.2854,"RA_OF_ASC_NODE":338.1048,"ARG_OF_PERICENTER":89.8521,"MEAN_ANOMALY":325.0015,"EPHEMERIS_TYPE":0,"CLASSIFICATION_TYPE":"U","NORAD_CAT_ID":68743,"ELEMENT_SET_NO":999,"REV_AT_EPOCH":276,"BSTAR":9.1614e-5,"MEAN_MOTION_DOT":0.00017395,"MEAN_MOTION_DDOT":0},{"OBJECT_NAME":"STARLINK-37344","OBJECT_ID":"2026-082S","EPOCH":"2026-04-25T20:00:01.000224","MEAN_MOTION":15.80761808,"ECCENTRICITY":0.0001631,"INCLINATION":97.2851,"RA_OF_ASC_NODE":338.1063,"ARG_OF_PERICENTER":82.2675,"MEAN_ANOMALY":336.8244,"EPHEMERIS_TYPE":0,"CLASSIFICATION_TYPE":"U","NORAD_CAT_ID":68744,"ELEMENT_SET_NO":999,"REV_AT_EPOCH":276,"BSTAR":-0.011445,"MEAN_MOTION_DOT":-0.01910063,"MEAN_MOTION_DDOT":0},{"OBJECT_NAME":"STARLINK-37267","OBJECT_ID":"2026-082T","EPOCH":"2026-04-25T20:00:01.000224","MEAN_MOTION":15.80776013,"ECCENTRICITY":0.0001327,"INCLINATION":97.2854,"RA_OF_ASC_NODE":338.1084,"ARG_OF_PERICENTER":84.2176,"MEAN_ANOMALY":339.1593,"EPHEMERIS_TYPE":0,"CLASSIFICATION_TYPE":"U","NORAD_CAT_ID":68745,"ELEMENT_SET_NO":999,"REV_AT_EPOCH":276,"BSTAR":0.00012251,"MEAN_MOTION_DOT":0.00023344,"MEAN_MOTION_DDOT":0},{"OBJECT_NAME":"STARLINK-37347","OBJECT_ID":"2026-082U","EPOCH":"2026-04-25T20:00:01.000224","MEAN_MOTION":15.80759365,"ECCENTRICITY":0.0001311,"INCLINATION":97.2845,"RA_OF_ASC_NODE":338.1099,"ARG_OF_PERICENTER":79.8706,"MEAN_ANOMALY":347.7836,"EPHEMERIS_TYPE":0,"CLASSIFICATION_TYPE":"U","NORAD_CAT_ID":68746,"ELEMENT_SET_NO":999,"REV_AT_EPOCH":276,"BSTAR":0.00031705,"MEAN_MOTION_DOT":0.00060854,"MEAN_MOTION_DDOT":0},{"OBJECT_NAME":"STARLINK-37268","OBJECT_ID":"2026-082V","EPOCH":"2026-04-25T20:00:01.000224","MEAN_MOTION":15.80747681,"ECCENTRICITY":9.15e-5,"INCLINATION":97.2848,"RA_OF_ASC_NODE":338.1119,"ARG_OF_PERICENTER":88.0615,"MEAN_ANOMALY":343.8704,"EPHEMERIS_TYPE":0,"CLASSIFICATION_TYPE":"U","NORAD_CAT_ID":68747,"ELEMENT_SET_NO":999,"REV_AT_EPOCH":276,"BSTAR":0.00039793,"MEAN_MOTION_DOT":0.0007651,"MEAN_MOTION_DDOT":0},{"OBJECT_NAME":"STARLINK-37325","OBJECT_ID":"2026-082W","EPOCH":"2026-04-25T20:00:01.000224","MEAN_MOTION":15.80762774,"ECCENTRICITY":0.0001216,"INCLINATION":97.2849,"RA_OF_ASC_NODE":338.1147,"ARG_OF_PERICENTER":81.5857,"MEAN_ANOMALY":354.6141,"EPHEMERIS_TYPE":0,"CLASSIFICATION_TYPE":"U","NORAD_CAT_ID":68748,"ELEMENT_SET_NO":999,"REV_AT_EPOCH":276,"BSTAR":0.00031511,"MEAN_MOTION_DOT":0.00060488,"MEAN_MOTION_DDOT":0},{"OBJECT_NAME":"STARLINK-37324","OBJECT_ID":"2026-082X","EPOCH":"2026-04-25T20:00:01.000224","MEAN_MOTION":15.80786937,"ECCENTRICITY":0.0001255,"INCLINATION":97.2846,"RA_OF_ASC_NODE":338.1179,"ARG_OF_PERICENTER":92.3855,"MEAN_ANOMALY":352.3546,"EPHEMERIS_TYPE":0,"CLASSIFICATION_TYPE":"U","NORAD_CAT_ID":68749,"ELEMENT_SET_NO":999,"REV_AT_EPOCH":276,"BSTAR":0.0001045,"MEAN_MOTION_DOT":0.00019893,"MEAN_MOTION_DDOT":0},{"OBJECT_NAME":"STARLINK-37350","OBJECT_ID":"2026-082Y","EPOCH":"2026-04-25T20:00:01.000224","MEAN_MOTION":15.79094559,"ECCENTRICITY":0.0001606,"INCLINATION":97.2843,"RA_OF_ASC_NODE":338.1207,"ARG_OF_PERICENTER":84.8468,"MEAN_ANOMALY":7.1188,"EPHEMERIS_TYPE":0,"CLASSIFICATION_TYPE":"U","NORAD_CAT_ID":68750,"ELEMENT_SET_NO":999,"REV_AT_EPOCH":276,"BSTAR":-0.0127,"MEAN_MOTION_DOT":-0.01956209,"MEAN_MOTION_DDOT":0},{"OBJECT_NAME":"STARLINK-37277","OBJECT_ID":"2026-082Z","EPOCH":"2026-04-25T20:00:01.000224","MEAN_MOTION":15.80769184,"ECCENTRICITY":0.0001487,"INCLINATION":97.2844,"RA_OF_ASC_NODE":338.1164,"ARG_OF_PERICENTER":89.5359,"MEAN_ANOMALY":350.9382,"EPHEMERIS_TYPE":0,"CLASSIFICATION_TYPE":"U","NORAD_CAT_ID":68751,"ELEMENT_SET_NO":999,"REV_AT_EPOCH":276,"BSTAR":0.00024289,"MEAN_MOTION_DOT":0.00046532,"MEAN_MOTION_DDOT":0},{"OBJECT_NAME":"STARLINK-37342","OBJECT_ID":"2026-082AA","EPOCH":"2026-04-25T20:00:01.000224","MEAN_MOTION":15.78730931,"ECCENTRICITY":0.0001834,"INCLINATION":97.2846,"RA_OF_ASC_NODE":338.1185,"ARG_OF_PERICENTER":74.8141,"MEAN_ANOMALY":12.2905,"EPHEMERIS_TYPE":0,"CLASSIFICATION_TYPE":"U","NORAD_CAT_ID":68752,"ELEMENT_SET_NO":999,"REV_AT_EPOCH":276,"BSTAR":-0.01287,"MEAN_MOTION_DOT":-0.01950974,"MEAN_MOTION_DDOT":0},{"OBJECT_NAME":"2026-083A","OBJECT_ID":"2026-083A","EPOCH":"2026-04-25T15:22:39.986976","MEAN_MOTION":15.22060846,"ECCENTRICITY":0.0064772,"INCLINATION":98.2658,"RA_OF_ASC_NODE":261.774,"ARG_OF_PERICENTER":50.207,"MEAN_ANOMALY":310.4842,"EPHEMERIS_TYPE":0,"CLASSIFICATION_TYPE":"U","NORAD_CAT_ID":68753,"ELEMENT_SET_NO":999,"REV_AT_EPOCH":133,"BSTAR":0.00019878,"MEAN_MOTION_DOT":4.726e-5,"MEAN_MOTION_DDOT":0},{"OBJECT_NAME":"2026-083B","OBJECT_ID":"2026-083B","EPOCH":"2026-04-25T14:18:58.351680","MEAN_MOTION":15.06538609,"ECCENTRICITY":0.000881,"INCLINATION":98.2527,"RA_OF_ASC_NODE":261.4484,"ARG_OF_PERICENTER":229.5159,"MEAN_ANOMALY":130.5299,"EPHEMERIS_TYPE":0,"CLASSIFICATION_TYPE":"U","NORAD_CAT_ID":68754,"ELEMENT_SET_NO":999,"REV_AT_EPOCH":130,"BSTAR":0.00016134,"MEAN_MOTION_DOT":2.316e-5,"MEAN_MOTION_DDOT":0},{"OBJECT_NAME":"2026-083D","OBJECT_ID":"2026-083D","EPOCH":"2026-04-25T15:47:28.209696","MEAN_MOTION":15.31472561,"ECCENTRICITY":0.0013688,"INCLINATION":96.9052,"RA_OF_ASC_NODE":256.2537,"ARG_OF_PERICENTER":238.9196,"MEAN_ANOMALY":121.0703,"EPHEMERIS_TYPE":0,"CLASSIFICATION_TYPE":"U","NORAD_CAT_ID":68756,"ELEMENT_SET_NO":999,"REV_AT_EPOCH":132,"BSTAR":0.00027674,"MEAN_MOTION_DOT":8.365e-5,"MEAN_MOTION_DDOT":0},{"OBJECT_NAME":"2026-083E","OBJECT_ID":"2026-083E","EPOCH":"2026-04-25T08:48:14.431680","MEAN_MOTION":15.25131961,"ECCENTRICITY":0.005902,"INCLINATION":98.2487,"RA_OF_ASC_NODE":261.4401,"ARG_OF_PERICENTER":49.4364,"MEAN_ANOMALY":311.1988,"EPHEMERIS_TYPE":0,"CLASSIFICATION_TYPE":"U","NORAD_CAT_ID":68757,"ELEMENT_SET_NO":999,"REV_AT_EPOCH":128,"BSTAR":0.006441,"MEAN_MOTION_DOT":0.00173055,"MEAN_MOTION_DDOT":0}]
